*******************************************************************************
Ephemeris / WWW_USER Tue Mar 27 22:43:48 2018 Pasadena, USA      / Horizons    
*******************************************************************************
Target body name: International Space Station (spacecraft) (-125544) {source: iss}
Center body name: Earth-Moon Barycenter (3)       {source: DE431mx}
Center-site name: BODY CENTER
*******************************************************************************
Start time      : A.D. 2000-Jan-01 00:00:00.0000 TDB
Stop  time      : A.D. 2005-Jan-01 00:00:00.0000 TDB
Step-size       : 7200 minutes
*******************************************************************************
Center geodetic : 0.00000000,0.00000000,0.0000000 {E-lon(deg),Lat(deg),Alt(km)}
Center cylindric: 0.00000000,0.00000000,0.0000000 {E-lon(deg),Dxy(km),Dz(km)}
Center radii    : (undefined)                                                  
Output units    : AU-D                                                         
Output type     : GEOMETRIC cartesian states
Output format   : 2 (position and velocity)
Reference frame : ICRF/J2000.0                                                 
Coordinate systm: Ecliptic and Mean Equinox of Reference Epoch                 
*******************************************************************************
JDTDB
   X     Y     Z
   VX    VY    VZ
*******************************************************************************
$$SOE
2453014.500000000 = A.D. 2004-Jan-10 00:00:00.0000 TDB 
  -2.630110144246249E-06 -5.640704477131580E-05  1.204881930965102E-05
   2.273087701273666E-03 -2.808776268436053E-03 -2.573295369886519E-03
2453019.500000000 = A.D. 2004-Jan-15 00:00:00.0000 TDB 
   6.089227519384750E-05 -8.598258150504375E-06 -2.540152246958905E-05
   2.512300872062096E-03  3.632707979752703E-03  4.302241623812876E-04
2453024.500000000 = A.D. 2004-Jan-20 00:00:00.0000 TDB 
   1.272659167798975E-05  6.744054250273747E-05  2.104289244824783E-05
  -4.207095711137404E-03  1.125221253410355E-03  9.262970705842121E-04
2453029.500000000 = A.D. 2004-Jan-25 00:00:00.0000 TDB 
  -7.295962205619905E-05  9.040951283141315E-06 -1.075281264423128E-05
   4.520882161750863E-04 -4.017284149759150E-03 -1.845392014769505E-03
2453034.500000000 = A.D. 2004-Jan-30 00:00:00.0000 TDB 
  -2.096624772173401E-06 -6.457888365490639E-05  1.207031435165448E-06
   3.097917913662681E-03  1.618283627450256E-03  2.734483143454297E-03
2453039.500000000 = A.D. 2004-Feb-04 00:00:00.0000 TDB 
   2.752400947757780E-05  5.696310156375070E-06  1.661571254774494E-05
  -2.383113416746320E-03  2.595488818947557E-03 -2.707610128547197E-03
2453044.500000000 = A.D. 2004-Feb-09 00:00:00.0000 TDB 
   4.635641320166008E-06 -6.137195557494433E-06 -3.907918866284636E-05
  -1.117491117439269E-03 -4.175335915533996E-03  9.557175823490012E-04
2453049.500000000 = A.D. 2004-Feb-14 00:00:00.0000 TDB 
   1.271751708870165E-05  7.508964544191431E-08  3.745546571911683E-05
   3.305650578328067E-03  2.324798291292905E-03  1.835486386778108E-03
2453054.500000000 = A.D. 2004-Feb-19 00:00:00.0000 TDB 
   1.499912202672349E-05  4.569440746180117E-05 -1.387729399314975E-05
  -2.093063838888125E-03  3.665065407809106E-04 -3.905362749257921E-03
2453059.500000000 = A.D. 2004-Feb-24 00:00:00.0000 TDB 
  -7.349178149799493E-05 -1.121327481290749E-05 -1.140073387586626E-05
  -1.162040746949231E-03 -1.233036925352750E-03  4.102741469042498E-03
2453064.500000000 = A.D. 2004-Feb-29 00:00:00.0000 TDB 
   1.751268518132129E-05 -4.864863183417222E-05  3.282718991479741E-05
   3.616985013809564E-03 -2.017815335266196E-04 -2.582936826910047E-03
2453069.500000000 = A.D. 2004-Mar-05 00:00:00.0000 TDB 
   3.598801726257830E-05 -9.333272751742375E-06 -4.497734957905038E-05
  -3.539148942099104E-03  2.658470187730334E-03 -3.213469382029234E-04
2453074.500000000 = A.D. 2004-Mar-10 00:00:00.0000 TDB 
  -4.269625558246523E-06  3.862777741191295E-05  2.194147012987808E-05
   2.635554624963512E-05 -3.005854815207654E-03  3.259251962970211E-03
2453079.500000000 = A.D. 2004-Mar-15 00:00:00.0000 TDB 
   5.693188441230951E-07 -1.454022149078781E-05  9.176397718191498E-06
   2.707056860613740E-03 -2.099718929438484E-04 -3.507570517107412E-03
2453084.500000000 = A.D. 2004-Mar-20 00:00:00.0000 TDB 
  -1.413542444847198E-06  3.185270936091242E-05 -2.098189781191511E-05
  -1.563602627380278E-03  3.624441106790028E-03  2.028638489135345E-03
2453089.500000000 = A.D. 2004-Mar-25 00:00:00.0000 TDB 
  -5.603984422534271E-05 -1.258158076144881E-05  2.404795022763830E-05
  -1.874759732811163E-03 -3.972742148260383E-03 -6.461681524310732E-04
2453094.500000000 = A.D. 2004-Mar-30 00:00:00.0000 TDB 
   2.365310045153739E-05 -6.791438333366916E-05 -2.435692588997223E-05
   4.241127647024276E-03  1.327225922910981E-03  9.458312335907096E-05
2453099.500000000 = A.D. 2004-Apr-04 00:00:00.0000 TDB 
   4.762900830917013E-05  3.264979312134390E-05  2.026670735248340E-05
  -3.983581656482863E-03  1.975784419930553E-03  2.424432850830449E-07
2453104.500000000 = A.D. 2004-Apr-09 00:00:00.0000 TDB 
  -2.207126748806794E-05  1.332198889649105E-05 -2.561209972945831E-05
   1.863666003658765E-03 -4.009945473042617E-03 -2.348540502289169E-04
2453109.500000000 = A.D. 2004-Apr-14 00:00:00.0000 TDB 
   7.699013001027086E-06  9.731398577692360E-06  3.412041626452640E-05
   6.306466403326107E-04  4.311546736067288E-03  8.664288021613449E-04
2453114.500000000 = A.D. 2004-Apr-19 00:00:00.0000 TDB 
  -4.303905491708648E-05  1.530928183622838E-05 -3.199686715883151E-05
  -2.421080449253797E-03 -3.270867778672038E-03 -1.772525598523720E-03
2453119.500000000 = A.D. 2004-Apr-24 00:00:00.0000 TDB 
  -1.248616057680924E-05 -6.465894514252460E-05  2.840789997811158E-05
   3.108748349412562E-03  1.728876803498921E-03  2.677440551828733E-03
2453124.500000000 = A.D. 2004-Apr-29 00:00:00.0000 TDB 
   5.206725555584478E-05  6.339247641994009E-06 -2.920807880206542E-05
  -2.921545601522395E-03 -3.629929541387398E-04 -3.317210436259692E-03
2453129.500000000 = A.D. 2004-May-04 00:00:00.0000 TDB 
  -1.273585004941987E-05  3.857007299260442E-06  2.096999748782091E-05
   2.325451611735860E-03 -6.599577233185874E-04  3.728408407996325E-03
2453134.500000000 = A.D. 2004-May-09 00:00:00.0000 TDB 
   3.288120312870838E-05  2.489739017441935E-05 -1.549072938424606E-05
  -1.577903718786885E-03  1.432272562615659E-03 -3.897191893659785E-03
2453139.500000000 = A.D. 2004-May-14 00:00:00.0000 TDB 
  -6.974662282863233E-05  2.092690985631727E-05  1.740047142873939E-05
   6.236278275100419E-04 -2.024271272752768E-03  3.910400430966218E-03
2453144.500000000 = A.D. 2004-May-19 00:00:00.0000 TDB 
   1.286691687025390E-05 -5.640660065073502E-05 -1.526692784357244E-05
   4.963388305115088E-04  2.362593911170295E-03 -3.722558952086212E-03
2453149.500000000 = A.D. 2004-May-24 00:00:00.0000 TDB 
  -2.722877065538856E-07  1.318907430504802E-05 -7.760390288027785E-07
  -2.362304891941906E-03 -9.748744131659904E-04  3.629312294193184E-03
2453154.500000000 = A.D. 2004-May-29 00:00:00.0000 TDB 
   2.218433864318233E-05 -4.509751664736004E-05  2.016159909359258E-06
   3.046169989782370E-03 -8.731278283020508E-04 -3.111447880682741E-03
2453159.500000000 = A.D. 2004-Jun-03 00:00:00.0000 TDB 
   3.906042284025573E-05  6.140940238755595E-05 -2.614052587682179E-06
  -2.627056679853621E-03  2.528089070193603E-03  2.546385775156686E-03
2453164.500000000 = A.D. 2004-Jun-08 00:00:00.0000 TDB 
  -6.611114732352200E-05  2.951134870093858E-07  1.757011081646476E-06
   1.524219040315516E-03 -3.576340907617142E-03 -2.160191872623848E-03
2453169.500000000 = A.D. 2004-Jun-13 00:00:00.0000 TDB 
   1.602298025559400E-05 -1.724249544992702E-05  8.716192033971074E-06
  -2.356281882004254E-04  3.948053773372167E-03  2.008592908830313E-03
2453174.500000000 = A.D. 2004-Jun-18 00:00:00.0000 TDB 
  -3.900683190052123E-05 -1.528098675393330E-05 -1.822691846194674E-05
  -9.110500716418791E-04 -3.838019149639892E-03 -2.043464957647774E-03
2453179.500000000 = A.D. 2004-Jun-23 00:00:00.0000 TDB 
   5.357590440720361E-05 -4.500061623394500E-05  2.054955758126639E-05
   1.821817975371599E-03  3.444229584735906E-03  2.149337808511572E-03
2453184.500000000 = A.D. 2004-Jun-28 00:00:00.0000 TDB 
   1.337477871681696E-05  4.940967448232881E-05 -2.942190198695520E-05
  -2.522508334912481E-03 -2.892816843327005E-03 -2.232004466707945E-03
2453189.500000000 = A.D. 2004-Jul-03 00:00:00.0000 TDB 
  -1.187090214129783E-05 -2.439372125035997E-06  3.599460608571063E-05
   3.110718566929108E-03  2.251061399206577E-03  2.228286149982985E-03
2453194.500000000 = A.D. 2004-Jul-08 00:00:00.0000 TDB 
  -1.835254253148969E-05  2.274007939080810E-05 -3.491164844370510E-05
  -3.636152562829315E-03 -1.393363745915571E-03 -2.136313464776546E-03
2453199.500000000 = A.D. 2004-Jul-13 00:00:00.0000 TDB 
  -3.413714126730273E-05 -4.357959326596532E-05  3.706442331019548E-05
   3.960069623622164E-03  2.199233655158936E-04  2.021462457482942E-03
2453204.500000000 = A.D. 2004-Jul-18 00:00:00.0000 TDB 
   3.728766441287977E-05 -2.015124706841419E-05 -4.237423231210578E-05
  -3.896434109480825E-03  1.138156260043540E-03 -1.779390270687614E-03
2453209.500000000 = A.D. 2004-Jul-23 00:00:00.0000 TDB 
   1.276446439361051E-05 -3.103347207521848E-06  3.914430719433331E-05
   3.465263922788839E-03 -2.478053508481746E-03  1.260282425462966E-03
2453214.500000000 = A.D. 2004-Jul-28 00:00:00.0000 TDB 
   2.560621070075002E-05  3.790857311249509E-05 -3.915622595406130E-05
  -2.729740658937268E-03  3.493297900917161E-03 -2.901835966294185E-04
2453219.500000000 = A.D. 2004-Aug-02 00:00:00.0000 TDB 
  -4.359373099146059E-05 -3.772073549502985E-06  3.821318317585719E-05
   2.046839985439803E-03 -3.813890896476448E-03 -1.035142557339085E-03
